NORAD_CAT_ID,OBJECT_NAME,OBJECT_TYPE,EPOCH,MEAN_MOTION,ECCENTRICITY,INCLINATION,RA_OF_ASC_NODE,ARG_OF_PERICENTER,MEAN_ANOMALY,BSTAR,MEAN_MOTION_DOT,MEAN_MOTION_DDOT,TLE_LINE0,TLE_LINE1,TLE_LINE2,SEMIMAJOR_AXIS,PERIOD,APOGEE,PERIGEE,DECAYED
55932.0,STARLINK-5848,PAYLOAD,2024-03-22 22:14:01,14.98321603,0.0003057,69.998,271.4794,264.6961,95.3849,8.3646e-05,9.05e-06,0.0,0 STARLINK-5848,1 55932U 23037U   24082.92640070  .00000905  00000-0  83646-4 0  9998,2 55932  69.9980 271.4794 0003057 264.6961  95.3849 14.98321603 57119,6950.219,96.108,574.209,569.959,0.0
55932.0,STARLINK-5848,PAYLOAD,2024-03-23 12:39:13,14.98323466,0.0003067,69.9979,269.9634,265.2819,94.799,0.00011192,1.242e-05,0.0,0 STARLINK-5848,1 55932U 23037U   24083.52724144  .00001242  00000-0  11192-3 0  9991,2 55932  69.9979 269.9634 0003067 265.2819  94.7990 14.98323466 57548,6950.213,96.107,574.21,569.946,0.0
55932.0,STARLINK-5848,PAYLOAD,2024-03-23 22:16:01,14.98328452,0.0003074,69.9979,268.9538,266.8444,93.2364,0.0001204,1.344e-05,0.0,0 STARLINK-5848,1 55932U 23037U   24083.92779921  .00001344  00000-0  12040-3 0  9994,2 55932  69.9979 268.9538 0003074 266.8444  93.2364 14.98328452 57267,6950.198,96.107,574.199,569.926,0.0
55932.0,STARLINK-5848,PAYLOAD,2024-03-24 12:41:14,14.98331777,0.000303,69.9983,267.4387,267.355,92.7262,4.4136e-05,4.34e-06,0.0,0 STARLINK-5848,1 55932U 23037U   24084.52863946  .00000434  00000-0  44136-4 0  9993,2 55932  69.9983 267.4387 0003030 267.3550  92.7262 14.98331777 57696,6950.187,96.107,574.158,569.946,0.0
55932.0,STARLINK-5848,PAYLOAD,2024-03-24 14:17:22,14.98332048,0.0003035,69.9983,267.2703,267.466,92.6152,4.6107e-05,4.57e-06,0.0,0 STARLINK-5848,1 55932U 23037U   24084.59539911  .00000457  00000-0  46107-4 0  9997,2 55932  69.9983 267.2703 0003035 267.4660  92.6152 14.98332048 57367,6950.187,96.107,574.161,569.942,0.0
55932.0,STARLINK-5848,PAYLOAD,2024-03-24 22:18:02,14.9833479,0.0003015,69.9985,266.4294,266.2851,93.7963,7.1246e-05,7.57e-06,0.0,0 STARLINK-5848,1 55932U 23037U   24084.92919603  .00000757  00000-0  71246-4 0  9999,2 55932  69.9985 266.4294 0003015 266.2851  93.7963 14.98334790 57416,6950.178,96.107,574.139,569.948,0.0
55932.0,STARLINK-5848,PAYLOAD,2024-03-25 12:43:15,14.98327937,0.0002931,69.9989,264.9144,267.6562,92.4261,-2.7411e-05,-4.2e-06,0.0,0 STARLINK-5848,1 55932U 23037U   24085.53004249 -.00000420  00000-0 -27411-4 0  9992,2 55932  69.9989 264.9144 0002931 267.6562  92.4261 14.98327937 57846,6950.199,96.107,574.101,570.027,0.0
55932.0,STARLINK-5848,PAYLOAD,2024-03-25 22:20:04,14.98313017,0.0002628,69.9993,263.9046,264.176,95.9099,0.00024248,2.8e-05,0.0,0 STARLINK-5848,1 55932U 23037U   24085.93060624  .00002800  00000-0  24248-3 0  9991,2 55932  69.9993 263.9046 0002628 264.1760  95.9099 14.98313017 57566,6950.245,96.108,573.937,570.284,0.0
55932.0,STARLINK-5848,PAYLOAD,2024-03-26 04:44:35,14.98356238,0.0002954,69.9996,263.2311,271.9178,88.1643,-0.00051349,-6.219e-05,0.0,0 STARLINK-5848,1 55932U 23037U   24086.19763553 -.00006219  00000-0 -51349-3 0  9993,2 55932  69.9996 263.2311 0002954 271.9178  88.1643 14.98356238 57941,6950.112,96.105,574.03,569.924,0.0
55932.0,STARLINK-5848,PAYLOAD,2024-03-26 12:45:16,14.98328172,0.0002714,69.9999,262.3896,263.7032,96.3818,-2.5143e-05,-3.93e-06,0.0,0 STARLINK-5848,1 55932U 23037U   24086.53144241 -.00000393  00000-0 -25143-4 0  9999,2 55932  69.9999 262.3896 0002714 263.7032  96.3818 14.98328172 57990,6950.199,96.107,573.95,570.177,0.0
55932.0,STARLINK-5848,PAYLOAD,2024-03-26 14:21:24,14.9832802,0.0002758,69.9998,262.2213,265.1034,94.981,-2.9149e-05,-4.41e-06,0.0,0 STARLINK-5848,1 55932U 23037U   24086.59820269 -.00000441  00000-0 -29149-4 0  9990,2 55932  69.9998 262.2213 0002758 265.1034  94.9810 14.98328020 57669,6950.199,96.107,573.981,570.147,0.0
55932.0,STARLINK-5848,PAYLOAD,2024-03-26 20:45:56,14.9832888,0.0002888,69.9996,261.5481,268.8775,91.2054,-4.7043e-05,-6.54e-06,0.0,0 STARLINK-5848,1 55932U 23037U   24086.86524291 -.00000654  00000-0 -47043-4 0  9995,2 55932  69.9996 261.5481 0002888 268.8775  91.2054 14.98328880 57701,6950.196,96.107,574.069,570.054,0.0
55932.0,STARLINK-5848,PAYLOAD,2024-03-27 12:47:17,14.98327194,0.0002935,69.9997,259.865,269.4262,90.656,2.1899e-05,1.68e-06,0.0,0 STARLINK-5848,1 55932U 23037U   24087.53284263  .00000168  00000-0  21899-4 0  9991,2 55932  69.9997 259.8650 0002935 269.4262  90.6560 14.98327194 58142,6950.202,96.107,574.106,570.027,0.0
55932.0,STARLINK-5848,PAYLOAD,2024-03-27 14:23:25,14.98327073,0.000294,69.9997,259.6967,269.4061,90.6761,2.0705e-05,1.54e-06,0.0,0 STARLINK-5848,1 55932U 23037U   24087.59960283  .00000154  00000-0  20705-4 0  9990,2 55932  69.9997 259.6967 0002940 269.4061  90.6761 14.98327073 57816,6950.202,96.107,574.11,570.024,0.0
55932.0,STARLINK-5848,PAYLOAD,2024-03-27 20:47:59,14.98314599,0.0002848,70.0,259.0234,265.5561,94.5273,-0.00010668,-1.365e-05,0.0,0 STARLINK-5848,1 55932U 23037U   24087.86665581 -.00001365  00000-0 -10668-3 0  9996,2 55932  70.0000 259.0234 0002848 265.5561  94.5273 14.98314599 58196,6950.241,96.108,574.085,570.126,0.0
55932.0,STARLINK-5848,PAYLOAD,2024-03-28 12:49:19,14.98317165,0.0003193,69.9997,257.3387,268.5198,91.5595,3.4949e-05,3.24e-06,0.0,0 STARLINK-5848,1 55932U 23037U   24088.53425423  .00000324  00000-0  34949-4 0  9991,2 55932  69.9997 257.3387 0003193 268.5198  91.5595 14.98317165 58298,6950.233,96.108,574.317,569.878,0.0
55932.0,STARLINK-5848,PAYLOAD,2024-03-29 04:50:41,14.98309433,0.0003984,70.0002,255.6584,271.0346,89.0357,-0.00014155,-1.781e-05,0.0,0 STARLINK-5848,1 55932U 23037U   24089.20187043 -.00001781  00000-0 -14155-3 0  9995,2 55932  70.0002 255.6584 0003984 271.0346  89.0357 14.98309433 58398,6950.256,96.108,574.89,569.353,0.0
55932.0,STARLINK-5848,PAYLOAD,2024-03-29 12:51:21,14.98324646,0.0003193,69.9988,254.8133,268.484,91.5953,9.357e-05,1.023e-05,0.0,0 STARLINK-5848,1 55932U 23037U   24089.53566070  .00001023  00000-0  93570-4 0  9998,2 55932  69.9988 254.8133 0003193 268.4840  91.5953 14.98324646 58449,6950.209,96.107,574.294,569.855,0.0
55932.0,STARLINK-5848,PAYLOAD,2024-03-29 17:39:45,14.98323093,0.0002895,70.0002,254.3095,268.67,91.4127,0.00019014,2.176e-05,0.0,0 STARLINK-5848,1 55932U 23037U   24089.73594015  .00002176  00000-0  19014-3 0  9990,2 55932  70.0002 254.3095 0002895 268.6700  91.4127 14.98323093 58139,6950.214,96.107,574.091,570.067,0.0
55932.0,STARLINK-5848,PAYLOAD,2024-03-30 12:53:21,14.98337098,0.0003003,69.9996,252.2895,270.5658,89.5157,0.00020816,2.392e-05,0.0,0 STARLINK-5848,1 55932U 23037U   24090.53705138  .00002392  00000-0  20816-3 0  9992,2 55932  69.9996 252.2895 0003003 270.5658  89.5157 14.98337098 58590,6950.171,96.107,574.123,569.949,0.0
55932.0,STARLINK-5848,PAYLOAD,2024-03-30 14:29:29,14.98337741,0.00031,69.9997,252.1213,270.4982,89.5821,0.00020773,2.387e-05,0.0,0 STARLINK-5848,1 55932U 23037U   24090.60381072  .00002387  00000-0  20773-3 0  9993,2 55932  69.9997 252.1213 0003100 270.4982  89.5821 14.98337741 58268,6950.169,96.107,574.189,569.879,0.0
55932.0,STARLINK-5848,PAYLOAD,2024-03-30 20:54:00,14.98345551,0.0003292,69.9995,251.4482,274.8389,85.2394,0.0002154,2.479e-05,0.0,0 STARLINK-5848,1 55932U 23037U   24090.87084370  .00002479  00000-0  21540-3 0  9998,2 55932  69.9995 251.4482 0003292 274.8389  85.2394 14.98345551 58308,6950.145,96.106,574.298,569.722,0.0
55932.0,STARLINK-5848,PAYLOAD,2024-03-31 03:18:35,14.98260403,0.0003168,69.9994,250.7747,278.4805,81.5995,0.0015439,0.00018344,0.0,0 STARLINK-5848,1 55932U 23037U   24091.13790556  .00018344  00000-0  15439-2 0  9995,2 55932  69.9994 250.7747 0003168 278.4805  81.5995 14.98260403 58687,6950.408,96.111,574.475,570.071,0.0
55932.0,STARLINK-5848,PAYLOAD,2024-03-31 12:55:21,14.98344993,0.000295,69.9997,249.7648,272.3647,87.7175,6.1452e-05,6.41e-06,0.0,0 STARLINK-5848,1 55932U 23037U   24091.53844562  .00000641  00000-0  61452-4 0  9995,2 55932  69.9997 249.7648 0002950 272.3647  87.7175 14.98344993 58745,6950.147,96.106,574.062,569.961,0.0
55932.0,STARLINK-5848,PAYLOAD,2024-03-31 14:31:29,14.98345159,0.0002952,69.9999,249.5965,272.3963,87.6858,6.1723e-05,6.44e-06,0.0,0 STARLINK-5848,1 55932U 23037U   24091.60520478  .00000644  00000-0  61723-4 0  9994,2 55932  69.9999 249.5965 0002952 272.3963  87.6858 14.98345159 58416,6950.146,96.106,574.063,569.959,0.0
55932.0,STARLINK-5848,PAYLOAD,2024-03-31 20:56:01,14.98347015,0.0002917,70.0001,248.9237,271.2488,88.8337,6.2207e-05,6.5e-06,0.0,0 STARLINK-5848,1 55932U 23037U   24091.87224048  .00000650  00000-0  62207-4 0  9992,2 55932  70.0001 248.9237 0002917 271.2488  88.8337 14.98347015 58451,6950.14,96.106,574.033,569.978,0.0
55932.0,STARLINK-5848,PAYLOAD,2024-04-01 12:57:22,14.98338119,0.0002192,70.0019,247.242,255.6331,104.4585,-0.00015384,-1.928e-05,0.0,0 STARLINK-5848,1 55932U 23037U   24092.53984757 -.00001928  00000-0 -15384-3 0  9990,2 55932  70.0019 247.2420 0002192 255.6331 104.4585 14.98338119 58897,6950.168,96.106,573.556,570.509,0.0
55932.0,STARLINK-5848,PAYLOAD,2024-04-01 14:33:31,14.98330882,0.0002567,70.0008,247.0726,262.4895,97.5973,-0.00019092,-2.37e-05,0.0,0 STARLINK-5848,1 55932U 23037U   24092.60661224 -.00002370  00000-0 -19092-3 0  9991,2 55932  70.0008 247.0726 0002567 262.4895  97.5973 14.98330882 58565,6950.19,96.107,573.839,570.271,0.0
55932.0,STARLINK-5848,PAYLOAD,2024-04-02 12:59:23,14.98339114,0.0002657,70.001,244.7163,267.1958,92.8897,-9.848e-05,-1.268e-05,0.0,0 STARLINK-5848,1 55932U 23037U   24093.54124046 -.00001268  00000-0 -98480-4 0  9995,2 55932  70.0010 244.7163 0002657 267.1958  92.8897 14.98339114 58705,6950.165,96.106,573.876,570.183,0.0
55932.0,STARLINK-5848,PAYLOAD,2024-04-02 19:23:55,14.98336388,0.0002615,70.0011,244.0432,266.8799,93.2061,-5.7444e-05,-7.78e-06,0.0,0 STARLINK-5848,1 55932U 23037U   24093.80827980 -.00000778  00000-0 -57444-4 0  9991,2 55932  70.0011 244.0432 0002615 266.8799  93.2061 14.98336388 59081,6950.173,96.107,573.856,570.221,0.0
